{"type": "FeatureCollection", "features": [ {"type": "Feature", "properties": {"norad_id": 38779, "name": "GSAT-10 (GAGAN/PRN 128)", "group": "gnss", "lat": 0.08815151998230802, "lon": 26.37245767795053, "alt_km": 35788.0842183091, "timestamp": "2025-12-14T14:39:29.612773+00:00", "meta": {"OBJECT_NAME": "GSAT-10 (GAGAN/PRN 128)", "OBJECT_ID": "2012-051B", "EPOCH": "2025-12-13T22:24:16.606656", "MEAN_MOTION": 1.00273052, "ECCENTRICITY": 0.00024834, "INCLINATION": 0.0866, "RA_OF_ASC_NODE": 266.1544, "ARG_OF_PERICENTER": 223.3714, "MEAN_ANOMALY": 12.4094, "EPHEMERIS_TYPE": 0, "CLASSIFICATION_TYPE": "U", "NORAD_CAT_ID": 38779, "ELEMENT_SET_NO": 999, "REV_AT_EPOCH": 4824, "BSTAR": 0, "MEAN_MOTION_DOT": -1.49e-06, "MEAN_MOTION_DDOT": 0}, "tle": {"line1": "1 38779U 12051B   25347.93352554 -.00000149  00000+0  00000+0 0  9993", "line2": "2 38779   0.0866 266.1544 0002483 223.3714  12.4094  1.00273052 48241"}}, "geometry": {"type": "Point", "coordinates": [26.37245767795053, 0.08815151998230802]}}, {"type": "Feature", "properties": {"norad_id": 38833, "name": "GPS BIIF-3  (PRN 24)", "group": "gnss", "lat": -11.172795571020796, "lon": -20.45391117356821, "alt_km": 20478.212291993335, "timestamp": "2025-12-14T14:39:29.612787+00:00", "meta": {"OBJECT_NAME": "GPS BIIF-3  (PRN 24)", "OBJECT_ID": "2012-053A", "EPOCH": "2025-12-13T20:21:34.724448", "MEAN_MOTION": 2.00565042, "ECCENTRICITY": 0.01758819, "INCLINATION": 53.5579, "RA_OF_ASC_NODE": 151.1931, "ARG_OF_PERICENTER": 64.0051, "MEAN_ANOMALY": 297.7998, "EPHEMERIS_TYPE": 0, "CLASSIFICATION_TYPE": "U", "NORAD_CAT_ID": 38833, "ELEMENT_SET_NO": 999, "REV_AT_EPOCH": 9572, "BSTAR": 0, "MEAN_MOTION_DOT": 9.2e-07, "MEAN_MOTION_DDOT": 0}, "tle": {"line1": "1 38833U 12053A   25347.84831857  .00000092  00000+0  00000+0 0  9990", "line2": "2 38833  53.5579 151.1931 0175881  64.0051 297.7998  2.00565042 95726"}}, "geometry": {"type": "Point", "coordinates": [-20.45391117356821, -11.172795571020796]}}, {"type": "Feature", "properties": {"norad_id": 38857, "name": "GSAT0103 (GALILEO-FM3)", "group": "gnss", "lat": -42.7398189527547, "lon": 67.5257714530812, "alt_km": 23220.845582209553, "timestamp": "2025-12-14T14:39:29.612801+00:00", "meta": {"OBJECT_NAME": "GSAT0103 (GALILEO-FM3)", "OBJECT_ID": "2012-055A", "EPOCH": "2025-12-13T12:39:44.093088", "MEAN_MOTION": 1.70473367, "ECCENTRICITY": 0.00026827, "INCLINATION": 55.6929, "RA_OF_ASC_NODE": 106.6448, "ARG_OF_PERICENTER": 268.8486, "MEAN_ANOMALY": 91.0883, "EPHEMERIS_TYPE": 0, "CLASSIFICATION_TYPE": "U", "NORAD_CAT_ID": 38857, "ELEMENT_SET_NO": 999, "REV_AT_EPOCH": 8184, "BSTAR": 0, "MEAN_MOTION_DOT": 1e-08, "MEAN_MOTION_DDOT": 0}, "tle": {"line1": "1 38857U 12055A   25347.52759367  .00000001  00000+0  00000+0 0  9998", "line2": "2 38857  55.6929 106.6448 0002682 268.8486  91.0883  1.70473367 81846"}}, "geometry": {"type": "Point", "coordinates": [67.5257714530812, -42.7398189527547]}}, {"type": "Feature", "properties": {"norad_id": 38953, "name": "BEIDOU-2 G6 (C02)", "group": "gnss", "lat": -2.925430957469927, "lon": 27.491611575013387, "alt_km": 35756.220262203, "timestamp": "2025-12-14T14:39:29.612813+00:00", "meta": {"OBJECT_NAME": "BEIDOU-2 G6 (C02)", "OBJECT_ID": "2012-059A", "EPOCH": "2025-12-13T20:41:54.109248", "MEAN_MOTION": 1.00269673, "ECCENTRICITY": 0.00079036, "INCLINATION": 3.9524, "RA_OF_ASC_NODE": 75.4959, "ARG_OF_PERICENTER": 290.1643, "MEAN_ANOMALY": 111.6061, "EPHEMERIS_TYPE": 0, "CLASSIFICATION_TYPE": "U", "NORAD_CAT_ID": 38953, "ELEMENT_SET_NO": 999, "REV_AT_EPOCH": 4805, "BSTAR": 0, "MEAN_MOTION_DOT": -1.6e-06, "MEAN_MOTION_DDOT": 0}, "tle": {"line1": "1 38953U 12059A   25347.86243182 -.00000160  00000+0  00000+0 0  9996", "line2": "2 38953   3.9524  75.4959 0007903 290.1643 111.6061  1.00269673 48053"}}, "geometry": {"type": "Point", "coordinates": [27.491611575013387, -2.925430957469927]}}, {"type": "Feature", "properties": {"norad_id": 38977, "name": "LUCH 5B (SDCM/PRN 125)", "group": "gnss", "lat": -8.306983255038077, "lon": -73.30065149891334, "alt_km": 35764.94710738325, "timestamp": "2025-12-14T14:39:29.612825+00:00", "meta": {"OBJECT_NAME": "LUCH 5B (SDCM/PRN 125)", "OBJECT_ID": "2012-061A", "EPOCH": "2025-12-13T23:38:39.482016", "MEAN_MOTION": 1.00272417, "ECCENTRICITY": 0.00069741, "INCLINATION": 10.0843, "RA_OF_ASC_NODE": 51.6952, "ARG_OF_PERICENTER": 193.6655, "MEAN_ANOMALY": 175.8757, "EPHEMERIS_TYPE": 0, "CLASSIFICATION_TYPE": "U", "NORAD_CAT_ID": 38977, "ELEMENT_SET_NO": 999, "REV_AT_EPOCH": 4775, "BSTAR": 0, "MEAN_MOTION_DOT": -1.27e-06, "MEAN_MOTION_DDOT": 0}, "tle": {"line1": "1 38977U 12061A   25347.98517919 -.00000127  00000+0  00000+0 0  9993", "line2": "2 38977  10.0843  51.6952 0006974 193.6655 175.8757  1.00272417 47758"}}, "geometry": {"type": "Point", "coordinates": [-73.30065149891334, -8.306983255038077]}}, {"type": "Feature", "properties": {"norad_id": 39155, "name": "COSMOS 2485 (747)", "group": "gnss", "lat": 65.3024697712634, "lon": 172.89418468231958, "alt_km": 19169.785705350474, "timestamp": "2025-12-14T14:39:29.612837+00:00", "meta": {"OBJECT_NAME": "COSMOS 2485 (747)", "OBJECT_ID": "2013-019A", "EPOCH": "2025-12-13T13:15:58.678272", "MEAN_MOTION": 2.13102947, "ECCENTRICITY": 0.00246467, "INCLINATION": 65.3142, "RA_OF_ASC_NODE": 79.8396, "ARG_OF_PERICENTER": 229.7128, "MEAN_ANOMALY": 130.0848, "EPHEMERIS_TYPE": 0, "CLASSIFICATION_TYPE": "U", "NORAD_CAT_ID": 39155, "ELEMENT_SET_NO": 999, "REV_AT_EPOCH": 9832, "BSTAR": 0, "MEAN_MOTION_DOT": -4.8e-07, "MEAN_MOTION_DDOT": 0}, "tle": {"line1": "1 39155U 13019A   25347.55276248 -.00000048  00000+0  00000+0 0  9998", "line2": "2 39155  65.3142  79.8396 0024646 229.7128 130.0848  2.13102947 98326"}}, "geometry": {"type": "Point", "coordinates": [172.89418468231958, 65.3024697712634]}}, {"type": "Feature", "properties": {"norad_id": 39166, "name": "GPS BIIF-4  (PRN 27)", "group": "gnss", "lat": -50.66149272850193, "lon": -143.39193979466378, "alt_km": 20367.091035274876, "timestamp": "2025-12-14T14:39:29.612848+00:00", "meta": {"OBJECT_NAME": "GPS BIIF-4  (PRN 27)", "OBJECT_ID": "2013-023A", "EPOCH": "2025-12-13T05:07:46.586496", "MEAN_MOTION": 2.0056518, "ECCENTRICITY": 0.01379131, "INCLINATION": 54.6516, "RA_OF_ASC_NODE": 276.5489, "ARG_OF_PERICENTER": 48.6136, "MEAN_ANOMALY": 312.5751, "EPHEMERIS_TYPE": 0, "CLASSIFICATION_TYPE": "U", "NORAD_CAT_ID": 39166, "ELEMENT_SET_NO": 999, "REV_AT_EPOCH": 9215, "BSTAR": 0, "MEAN_MOTION_DOT": -7.6e-07, "MEAN_MOTION_DDOT": 0}, "tle": {"line1": "1 39166U 13023A   25347.21373364 -.00000076  00000+0  00000+0 0  9996", "line2": "2 39166  54.6516 276.5489 0137913  48.6136 312.5751  2.00565180 92155"}}, "geometry": {"type": "Point", "coordinates": [-143.39193979466378, -50.66149272850193]}}, {"type": "Feature", "properties": {"norad_id": 39199, "name": "IRNSS-1A", "group": "gnss", "lat": -32.27443598771612, "lon": 3.5542069542975074, "alt_km": 35813.66262832278, "timestamp": "2025-12-14T14:39:29.612861+00:00", "meta": {"OBJECT_NAME": "IRNSS-1A", "OBJECT_ID": "2013-034A", "EPOCH": "2025-12-02T19:49:26.431104", "MEAN_MOTION": 1.00279053, "ECCENTRICITY": 0.00216608, "INCLINATION": 35.2852, "RA_OF_ASC_NODE": 66.6964, "ARG_OF_PERICENTER": 185.4059, "MEAN_ANOMALY": 172.3398, "EPHEMERIS_TYPE": 0, "CLASSIFICATION_TYPE": "U", "NORAD_CAT_ID": 39199, "ELEMENT_SET_NO": 999, "REV_AT_EPOCH": 4539, "BSTAR": 0, "MEAN_MOTION_DOT": 6.5e-07, "MEAN_MOTION_DDOT": 0}, "tle": {"line1": "1 39199U 13034A   25336.82600036  .00000065  00000+0  00000+0 0  9995", "line2": "2 39199  35.2852  66.6964 0021660 185.4059 172.3398  1.00279053 45393"}}, "geometry": {"type": "Point", "coordinates": [3.5542069542975074, -32.27443598771612]}}, {"type": "Feature", "properties": {"norad_id": 39533, "name": "GPS BIIF-5  (PRN 30)", "group": "gnss", "lat": -47.66074014629556, "lon": 102.84281427588976, "alt_km": 20102.1377316431, "timestamp": "2025-12-14T14:39:29.612874+00:00", "meta": {"OBJECT_NAME": "GPS BIIF-5  (PRN 30)", "OBJECT_ID": "2014-008A", "EPOCH": "2025-12-12T17:01:11.546688", "MEAN_MOTION": 2.00574462, "ECCENTRICITY": 0.00792236, "INCLINATION": 53.6311, "RA_OF_ASC_NODE": 156.9259, "ARG_OF_PERICENTER": 226.5032, "MEAN_ANOMALY": 132.848, "EPHEMERIS_TYPE": 0, "CLASSIFICATION_TYPE": "U", "NORAD_CAT_ID": 39533, "ELEMENT_SET_NO": 999, "REV_AT_EPOCH": 8594, "BSTAR": 0, "MEAN_MOTION_DOT": 9.5e-07, "MEAN_MOTION_DDOT": 0}, "tle": {"line1": "1 39533U 14008A   25346.70916142  .00000095  00000+0  00000+0 0  9998", "line2": "2 39533  53.6311 156.9259 0079223 226.5032 132.8480  2.00574462 85946"}}, "geometry": {"type": "Point", "coordinates": [102.84281427588976, -47.66074014629556]}}, {"type": "Feature", "properties": {"norad_id": 39617, "name": "ASTRA 5B (EGNOS/PRN 123)", "group": "gnss", "lat": -0.06294328932907386, "lon": -33.073941101470915, "alt_km": 35776.55418112327, "timestamp": "2025-12-14T14:39:29.612886+00:00", "meta": {"OBJECT_NAME": "ASTRA 5B (EGNOS/PRN 123)", "OBJECT_ID": "2014-011B", "EPOCH": "2025-12-13T22:07:18.232320", "MEAN_MOTION": 1.00273158, "ECCENTRICITY": 0.00043014, "INCLINATION": 0.0633, "RA_OF_ASC_NODE": 40.69, "ARG_OF_PERICENTER": 226.1492, "MEAN_ANOMALY": 171.3231, "EPHEMERIS_TYPE": 0, "CLASSIFICATION_TYPE": "U", "NORAD_CAT_ID": 39617, "ELEMENT_SET_NO": 999, "REV_AT_EPOCH": 4281, "BSTAR": 0, "MEAN_MOTION_DOT": 1.54e-06, "MEAN_MOTION_DDOT": 0}, "tle": {"line1": "1 39617U 14011B   25347.92173880  .00000154  00000+0  00000+0 0  9990", "line2": "2 39617   0.0633  40.6900 0004301 226.1492 171.3231  1.00273158 42813"}}, "geometry": {"type": "Point", "coordinates": [-33.073941101470915, -0.06294328932907386]}}]}